[{"OBJECT_NAME":"TIANQI-16","OBJECT_ID":"2025-105A","EPOCH":"2026-03-09T12:21:56.157984","MEAN_MOTION":13.99115329,"ECCENTRICITY":0.0012645,"INCLINATION":44.9833,"RA_OF_ASC_NODE":105.8163,"ARG_OF_PERICENTER":266.1357,"MEAN_ANOMALY":93.803,"EPHEMERIS_TYPE":0,"CLASSIFICATION_TYPE":"U","NORAD_CAT_ID":64058,"ELEMENT_SET_NO":999,"REV_AT_EPOCH":4123,"BSTAR":0.00015431,"MEAN_MOTION_DOT":9.7e-7,"MEAN_MOTION_DDOT":0},{"OBJECT_NAME":"DIAMANT DEB","OBJECT_ID":"1967-014F","EPOCH":"2026-03-08T22:12:40.817952","MEAN_MOTION":14.36285339,"ECCENTRICITY":0.034388,"INCLINATION":38.9293,"RA_OF_ASC_NODE":272.8082,"ARG_OF_PERICENTER":97.8602,"MEAN_ANOMALY":266.1323,"EPHEMERIS_TYPE":0,"CLASSIFICATION_TYPE":"U","NORAD_CAT_ID":2685,"ELEMENT_SET_NO":999,"REV_AT_EPOCH":95305,"BSTAR":0.0015965488,"MEAN_MOTION_DOT":9.263e-5,"MEAN_MOTION_DDOT":0}]
